0 METEOR 2-8 DEB
1 36347U 82025AH  13256.56430044  .00001921  00000-0  14727-2 0  1249
2 36347 082.5336 197.5731 0017037 005.3497 354.8640 13.92736288348702
0 METEOR 2-8 DEB
1 36347U 82025AH  13257.13901819  .00001906  00000-0  14613-2 0  1254
2 36347 082.5406 197.1260 0017297 019.1778 340.9344 13.92737517348787
0 METEOR 2-8 DEB
1 36347U 82025AH  13261.52134950  .00001916  00000-0  14683-2 0  1265
2 36347 082.5402 193.5946 0017166 009.1551 351.0026 13.92754530349399
0 METEOR 2-8 DEB
1 36347U 82025AH  13264.10760736  .00001922  00000-0  14730-2 0  1270
2 36347 082.5407 191.5036 0017259 000.8763 359.2473 13.92764646349753
0 METEOR 2-8 DEB
1 36347U 82025AH  13268.05880148  .00001962  00000-0  15032-2 0  1289
2 36347 082.5391 188.3193 0017912 351.3500 008.7627 13.92781399350306
